FLOCK 4G-21             
1 62651U 25009AU  26068.19487675  .00013648  00000+0  49619-3 0  9998
2 62651  97.4032 151.1274 0000465 329.5782  30.5431 15.28381075 63677
STARLINK-34143          
1 63896U 25095G   26068.32864415  .00040432  00000+0  14703-2 0  9997
2 63896  42.9961 178.1631 0000330 216.7211 143.3618 15.27591094 47738
